NORAD_CAT_ID,OBJECT_NAME,OBJECT_TYPE,EPOCH,MEAN_MOTION,ECCENTRICITY,INCLINATION,RA_OF_ASC_NODE,ARG_OF_PERICENTER,MEAN_ANOMALY,BSTAR,MEAN_MOTION_DOT,MEAN_MOTION_DDOT,TLE_LINE0,TLE_LINE1,TLE_LINE2,SEMIMAJOR_AXIS,PERIOD,APOGEE,PERIGEE,DECAYED
51133.0,STARLINK-3356,PAYLOAD,2023-04-26 13:09:38,15.08821138,6.52e-05,53.2199,324.4113,90.0374,270.0693,0.00050628,7.775e-05,0.0,0 STARLINK-3356,1 51133U 22005AF  23116.54836667  .00007775  00000-0  50628-3 0  9990,2 51133  53.2199 324.4113 0000652  90.0374 270.0693 15.08821138 70492,6917.938,95.439,540.254,539.352,0.0
51133.0,STARLINK-3356,PAYLOAD,2023-04-26 14:45:02,15.08820702,5.48e-05,53.2206,324.1144,101.9994,258.1059,0.00062275,9.632e-05,0.0,0 STARLINK-3356,1 51133U 22005AF  23116.61460845  .00009632  00000-0  62275-3 0  9994,2 51133  53.2206 324.1144 0000548 101.9994 258.1059 15.08820702 70507,6917.939,95.439,540.183,539.425,0.0
51133.0,STARLINK-3356,PAYLOAD,2023-04-27 13:00:25,15.08856298,0.0001683,53.2141,319.9458,129.5243,230.5898,0.0008687,0.00013571,0.0,0 STARLINK-3356,1 51133U 22005AF  23117.54196752  .00013571  00000-0  86870-3 0  9994,2 51133  53.2141 319.9458 0001683 129.5243 230.5898 15.08856298 70648,6917.831,95.437,540.86,538.531,0.0
51133.0,STARLINK-3356,PAYLOAD,2023-04-27 20:57:20,15.08871747,0.0001212,53.2157,318.4606,135.1033,225.0057,0.00081305,0.00012687,0.0,0 STARLINK-3356,1 51133U 22005AF  23117.87315846  .00012687  00000-0  81305-3 0  9992,2 51133  53.2157 318.4606 0001212 135.1033 225.0057 15.08871747 71814,6917.783,95.436,540.487,538.81,0.0
51133.0,STARLINK-3356,PAYLOAD,2023-04-28 12:51:12,15.08857104,0.0001427,53.2147,315.4903,88.5026,271.6129,-6.5667e-05,-1.333e-05,0.0,0 STARLINK-3356,1 51133U 22005AF  23118.53555714 -.00001333  00000-0 -65667-4 0  9998,2 51133  53.2147 315.4903 0001427  88.5026 271.6129 15.08857104 71910,6917.828,95.436,540.68,538.706,0.0
51133.0,STARLINK-3356,PAYLOAD,2023-04-29 12:41:59,15.08841503,8.98e-05,53.2154,311.0268,106.975,253.134,0.00017657,2.524e-05,0.0,0 STARLINK-3356,1 51133U 22005AF  23119.52915806  .00002524  00000-0  17657-3 0  9996,2 51133  53.2154 311.0268 0000898 106.9750 253.1340 15.08841503 72067,6917.876,95.437,540.362,539.12,0.0
51133.0,STARLINK-3356,PAYLOAD,2023-04-29 19:03:31,15.08849611,8.89e-05,53.2154,309.837,104.3719,255.7372,0.00026863,3.991e-05,0.0,0 STARLINK-3356,1 51133U 22005AF  23119.79411559  .00003991  00000-0  26863-3 0  9999,2 51133  53.2154 309.8370 0000889 104.3719 255.7372 15.08849611 72109,6917.851,95.437,540.331,539.101,0.0
51133.0,STARLINK-3356,PAYLOAD,2023-04-30 18:54:18,15.08841478,8.6e-05,53.2153,305.3766,98.0161,262.0929,0.00014944,2.092e-05,0.0,0 STARLINK-3356,1 51133U 22005AF  23120.78771905  .00002092  00000-0  14944-3 0  9992,2 51133  53.2153 305.3766 0000860  98.0161 262.0929 15.08841478 72255,6917.876,95.437,540.336,539.146,0.0
51133.0,STARLINK-3356,PAYLOAD,2023-05-01 12:23:33,15.08841044,9.09e-05,53.2151,302.1059,90.9353,269.1743,9.2751e-05,1.189e-05,0.0,0 STARLINK-3356,1 51133U 22005AF  23121.51636006  .00001189  00000-0  92751-4 0  9995,2 51133  53.2151 302.1059 0000909  90.9353 269.1743 15.08841044 71240,6917.877,95.437,540.371,539.113,0.0
51133.0,STARLINK-3356,PAYLOAD,2023-05-01 18:45:05,15.08841691,8.6e-05,53.2151,300.9165,85.071,275.0381,8.2934e-05,1.032e-05,0.0,0 STARLINK-3356,1 51133U 22005AF  23121.78131937  .00001032  00000-0  82934-4 0  9996,2 51133  53.2151 300.9165 0000860  85.0710 275.0381 15.08841691 71288,6917.875,95.437,540.335,539.145,0.0
51133.0,STARLINK-3356,PAYLOAD,2023-05-02 12:14:20,15.08839178,8.47e-05,53.2164,297.6445,77.6146,282.4941,0.00010388,1.366e-05,0.0,0 STARLINK-3356,1 51133U 22005AF  23122.50996090  .00001366  00000-0  10388-3 0  9999,2 51133  53.2164 297.6445 0000847  77.6146 282.4941 15.08839178 72518,6917.883,95.438,540.334,539.162,0.0
51133.0,STARLINK-3356,PAYLOAD,2023-05-02 20:11:15,15.08844232,8.75e-05,53.2164,296.1571,86.2839,273.8253,0.00013609,1.879e-05,0.0,0 STARLINK-3356,1 51133U 22005AF  23122.84115659  .00001879  00000-0  13609-3 0  9998,2 51133  53.2164 296.1571 0000875  86.2839 273.8253 15.08844232 71446,6917.867,95.437,540.338,539.127,0.0
51133.0,STARLINK-3356,PAYLOAD,2023-05-03 04:08:12,15.08838632,9.51e-05,53.217,294.6691,71.434,288.6755,9.2115e-05,1.179e-05,0.0,0 STARLINK-3356,1 51133U 22005AF  23123.17236239  .00001179  00000-0  92115-4 0  9996,2 51133  53.2170 294.6691 0000951  71.4340 288.6755 15.08838632 71490,6917.885,95.438,540.407,539.092,0.0
51133.0,STARLINK-3356,PAYLOAD,2023-05-03 16:51:17,15.08832859,9.34e-05,53.2167,292.2907,79.4448,280.665,1.33e-05,-7.6e-07,0.0,0 STARLINK-3356,1 51133U 22005AF  23123.70228862 -.00000076  00000-0  13300-4 0  9993,2 51133  53.2167 292.2907 0000934  79.4448 280.6650 15.08832859 72692,6917.902,95.438,540.413,539.121,0.0
51133.0,STARLINK-3356,PAYLOAD,2023-05-03 21:37:26,15.08837634,9.9e-05,53.2182,291.3976,87.3334,272.7771,1.7392e-05,-1.1e-07,0.0,0 STARLINK-3356,1 51133U 22005AF  23123.90100530 -.00000011  00000-0  17392-4 0  9990,2 51133  53.2182 291.3976 0000990  87.3334 272.7771 15.08837634 71601,6917.888,95.438,540.437,539.068,0.0
51133.0,STARLINK-3356,PAYLOAD,2023-05-04 10:20:32,15.08836488,9.43e-05,53.2167,289.0211,88.2987,271.8113,1.3293e-05,-7.6e-07,0.0,0 STARLINK-3356,1 51133U 22005AF  23124.43092747 -.00000076  00000-0  13293-4 0  9996,2 51133  53.2167 289.0211 0000943  88.2987 271.8113 15.08836488 71686,6917.891,95.438,540.408,539.104,0.0
51133.0,STARLINK-3356,PAYLOAD,2023-05-04 21:28:13,15.08846087,9.6e-05,53.2166,286.9393,85.8239,274.2863,9.311e-05,1.195e-05,0.0,0 STARLINK-3356,1 51133U 22005AF  23124.89459913  .00001195  00000-0  93110-4 0  9996,2 51133  53.2166 286.9393 0000960  85.8239 274.2863 15.08846087 72871,6917.862,95.437,540.391,539.063,0.0
51133.0,STARLINK-3356,PAYLOAD,2023-05-05 10:11:19,15.08834155,9.5e-05,53.2167,284.5592,77.0035,283.1063,9.0296e-05,1.149e-05,0.0,0 STARLINK-3356,1 51133U 22005AF  23125.42452817  .00001149  00000-0  90296-4 0  9993,2 51133  53.2167 284.5592 0000950  77.0035 283.1063 15.08834155 72956,6917.898,95.438,540.42,539.106,0.0
51133.0,STARLINK-3356,PAYLOAD,2023-05-05 18:08:14,15.08846021,9.89e-05,53.2172,283.0745,76.9551,283.1552,8.3317e-05,1.039e-05,0.0,0 STARLINK-3356,1 51133U 22005AF  23125.75572195  .00001039  00000-0  83317-4 0  9995,2 51133  53.2172 283.0745 0000989  76.9551 283.1552 15.08846021 73004,6917.862,95.437,540.411,539.043,0.0
51133.0,STARLINK-3356,PAYLOAD,2023-05-06 13:12:52,15.0884081,0.0001055,53.2164,279.5062,72.6224,287.4884,9.8684e-05,1.283e-05,0.0,0 STARLINK-3356,1 51133U 22005AF  23126.55060657  .00001283  00000-0  98684-4 0  9993,2 51133  53.2164 279.5062 0001055  72.6224 287.4884 15.08840810 72006,6917.878,95.438,540.473,539.013,0.0
51133.0,STARLINK-3356,PAYLOAD,2023-05-07 03:31:20,15.08849119,7.91e-05,53.2155,276.83,77.9333,282.1748,4.6662e-05,4.55e-06,0.0,0 STARLINK-3356,1 51133U 22005AF  23127.14675972  .00000455  00000-0  46662-4 0  9990,2 51133  53.2155 276.8300 0000791  77.9333 282.1748 15.08849119 73212,6917.853,95.437,540.265,539.17,0.0
51133.0,STARLINK-3356,PAYLOAD,2023-05-07 16:14:26,15.08837941,8.54e-05,53.216,274.4504,87.1024,273.0065,-9.2849e-07,-3.02e-06,0.0,0 STARLINK-3356,1 51133U 22005AF  23127.67668993 -.00000302  00000-0 -92849-6 0  9996,2 51133  53.2160 274.4504 0000854  87.1024 273.0065 15.08837941 73297,6917.887,95.438,540.342,539.161,0.0
51133.0,STARLINK-3356,PAYLOAD,2023-05-08 16:05:12,15.08846785,8.9e-05,53.216,269.9901,88.0275,272.0819,0.00014635,2.043e-05,0.0,0 STARLINK-3356,1 51133U 22005AF  23128.67028177  .00002043  00000-0  14635-3 0  9997,2 51133  53.2160 269.9901 0000890  88.0275 272.0819 15.08846785 72320,6917.86,95.437,540.34,539.109,0.0
51133.0,STARLINK-3356,PAYLOAD,2023-05-09 12:45:13,15.08836461,8.91e-05,53.2156,266.1236,93.8447,266.2647,0.00012961,1.775e-05,0.0,0 STARLINK-3356,1 51133U 22005AF  23129.53141026  .00001775  00000-0  12961-3 0  9993,2 51133  53.2156 266.1236 0000891  93.8447 266.2647 15.08836461 73573,6917.891,95.438,540.373,539.14,0.0
51133.0,STARLINK-3356,PAYLOAD,2023-05-09 14:20:36,15.08834524,7.13e-05,53.2163,265.8268,91.2014,268.906,0.00015776,2.224e-05,0.0,0 STARLINK-3356,1 51133U 22005AF  23129.59764980  .00002224  00000-0  15776-3 0  9996,2 51133  53.2163 265.8268 0000713  91.2014 268.9060 15.08834524 72460,6917.897,95.438,540.255,539.269,0.0
51133.0,STARLINK-3356,PAYLOAD,2023-05-10 12:36:00,15.0883892,8.69e-05,53.2169,261.6629,91.8332,268.276,4.9877e-05,5.06e-06,0.0,0 STARLINK-3356,1 51133U 22005AF  23130.52501049  .00000506  00000-0  49877-4 0  9997,2 51133  53.2169 261.6629 0000869  91.8332 268.2760 15.08838920 72602,6917.884,95.438,540.35,539.148,0.0
51133.0,STARLINK-3356,PAYLOAD,2023-05-10 17:22:09,15.08847811,9.41e-05,53.2174,260.7713,91.956,268.154,8.9151e-05,1.132e-05,0.0,0 STARLINK-3356,1 51133U 22005AF  23130.72372342  .00001132  00000-0  89151-4 0  9996,2 51133  53.2174 260.7713 0000941  91.9560 268.1540 15.08847811 73758,6917.857,95.437,540.372,539.071,0.0
51133.0,STARLINK-3356,PAYLOAD,2023-05-11 01:19:05,15.08844423,8.38e-05,53.216,259.2824,74.9974,285.1111,4.3269e-05,4.01e-06,0.0,0 STARLINK-3356,1 51133U 22005AF  23131.05492528  .00000401  00000-0  43269-4 0  9990,2 51133  53.2160 259.2824 0000838  74.9974 285.1111 15.08844423 72684,6917.867,95.437,540.312,539.152,0.0
51133.0,STARLINK-3356,PAYLOAD,2023-05-11 14:02:11,15.08839845,0.0001017,53.2171,256.906,88.4728,271.638,8.3519e-06,-1.55e-06,0.0,0 STARLINK-3356,1 51133U 22005AF  23131.58485213 -.00000155  00000-0  83519-5 0  9991,2 51133  53.2171 256.9060 0001017  88.4728 271.6380 15.08839845 73882,6917.881,95.438,540.449,539.042,0.0
51133.0,STARLINK-3356,PAYLOAD,2023-05-12 01:09:52,15.08843106,0.0001067,53.2175,254.8247,79.9601,280.1511,1.6227e-05,-3e-07,0.0,0 STARLINK-3356,1 51133U 22005AF  23132.04852972 -.00000030  00000-0  16227-4 0  9996,2 51133  53.2175 254.8247 0001067  79.9601 280.1511 15.08843106 72830,6917.871,95.437,540.474,538.998,0.0
